[
    {
        "Site": "Snake Mountain",
        "Town": "Addison",
        "Zip": 5491,
        "Long": -73.4462814,
        "Lat\r": 44.1228394
    },
    {
        "Site": "Brousseau Mountain",
        "Town": "Averill",
        "Zip": 5901,
        "Long": -71.7272701,
        "Lat\r": 44.9988853
    },
    {
        "Site": "Checkerberry Ledge",
        "Town": "Bakersfield",
        "Zip": 5441,
        "Long": -72.821714,
        "Lat\r": 44.782719
    },
    {
        "Site": "Barnet Roadcut",
        "Town": "Barnet",
        "Zip": 5821,
        "Long": -72.2430168,
        "Lat\r": 44.320753
    },
    {
        "Site": "Rock of Ages QUarry",
        "Town": "Barre",
        "Zip": 5641,
        "Long": -72.2430168,
        "Lat\r": 44.320753
    },
    {
        "Site": "Crystal Lake",
        "Town": "Barton",
        "Zip": 5822,
        "Long": -72.2430168,
        "Lat\r": 44.320753
    },
    {
        "Site": "Rattlesnake Ridge",
        "Town": "Benson",
        "Zip": 5743,
        "Long": -72.2430168,
        "Lat\r": 44.320753
    },
    {
        "Site": "Bethel Quarry",
        "Town": "Bethel",
        "Zip": 5032,
        "Long": -73.3894493,
        "Lat\r": 43.7156231
    },
    {
        "Site": "Bolton Notch - Upper Upper West",
        "Town": "Bolton",
        "Zip": 5676,
        "Long": -72.8070718,
        "Lat\r": 44.3385703
    },
    {
        "Site": "Bone Mt",
        "Town": "Bolton",
        "Zip": 5676,
        "Long": -72.8070718,
        "Lat\r": 44.3385703
    },
    {
        "Site": "Bradford Cliff",
        "Town": "Bradford",
        "Zip": 5033,
        "Long": -72.3140096,
        "Lat\r": 43.9887403
    },
    {
        "Site": "Mount Horrid",
        "Town": "Brandon",
        "Zip": 5733,
        "Long": -73.3910329,
        "Lat\r": 43.8058364
    },
    {
        "Site": "Bristol Cliff",
        "Town": "Bristol",
        "Zip": 5443,
        "Long": -73.3143193,
        "Lat\r": 44.1264587
    },
    {
        "Site": "Deer Leap",
        "Town": "Bristol",
        "Zip": 5443,
        "Long": -73.3143193,
        "Lat\r": 44.1264587
    },
    {
        "Site": "Elephant Mountain",
        "Town": "Bristol",
        "Zip": 5443,
        "Long": -73.3143193,
        "Lat\r": 44.1264587
    },
    {
        "Site": "Lone Rock Point",
        "Town": "Burlington",
        "Zip": 5401,
        "Long": -73.3675351,
        "Lat\r": 44.4769853
    },
    {
        "Site": "Hawkins Pond",
        "Town": "Calais",
        "Zip": 5648,
        "Long": -72.5712602,
        "Lat\r": 44.3771376
    },
    {
        "Site": "Smuggler's Notch",
        "Town": "Cambridge",
        "Zip": 5444,
        "Long": -72.9677713,
        "Lat\r": 44.6171821
    },
    {
        "Site": "Wallace Ledge",
        "Town": "Castleton",
        "Zip": 5735,
        "Long": -73.3065302,
        "Lat\r": 43.6614643
    },
    {
        "Site": "Mallet's Bay",
        "Town": "Colchester",
        "Zip": 5446,
        "Long": -73.5097019,
        "Lat\r": 44.5599527
    },
    {
        "Site": "Whitcomb Quarry",
        "Town": "Colchester",
        "Zip": 5446,
        "Long": -73.5097019,
        "Lat\r": 44.5599527
    },
    {
        "Site": "Camels Hump",
        "Town": "Duxbury",
        "Zip": 5676,
        "Long": -73.0863651,
        "Lat\r": 44.3493807
    },
    {
        "Site": "Fairlee Palisades",
        "Town": "Fairlee",
        "Zip": 5045,
        "Long": -72.3315382,
        "Lat\r": 43.9022448
    },
    {
        "Site": "Sawyer Mountain",
        "Town": "Fairlee",
        "Zip": 5045,
        "Long": -72.3315382,
        "Lat\r": 43.9022448
    },
    {
        "Site": "Highgate Cliffs",
        "Town": "Highgate Springs",
        "Zip": 5459,
        "Long": -73.1571117,
        "Lat\r": 44.9612997
    },
    {
        "Site": "Red Rock",
        "Town": "Hinesburg",
        "Zip": 5461,
        "Long": -73.2306372,
        "Lat\r": 44.3157958
    },
    {
        "Site": "Ball Mountain",
        "Town": "Jamaica",
        "Zip": 5343,
        "Long": -72.9423509,
        "Lat\r": 43.101257
    },
    {
        "Site": "Prospect Rock",
        "Town": "Johnson",
        "Zip": 5656,
        "Long": -72.9628055,
        "Lat\r": 44.6471522
    },
    {
        "Site": "Hazen's Notch",
        "Town": "Lowell",
        "Zip": 5847,
        "Long": -72.7370613,
        "Lat\r": 44.8194086
    },
    {
        "Site": "Mount Norris",
        "Town": "Lowell",
        "Zip": 5847,
        "Long": -72.7370613,
        "Lat\r": 44.8194086
    },
    {
        "Site": "Mount Equinox",
        "Town": "Manchester",
        "Zip": 5254,
        "Long": -73.1079352,
        "Lat\r": 43.1635258
    },
    {
        "Site": "Marshfield Mountain",
        "Town": "Marshfield",
        "Zip": 5658,
        "Long": -72.6273261,
        "Lat\r": 44.3655557
    },
    {
        "Site": "Arrowhead Mountain",
        "Town": "Milton",
        "Zip": 5468,
        "Long": -73.419314,
        "Lat\r": 44.6481196
    },
    {
        "Site": "Eagle Mountain",
        "Town": "Milton",
        "Zip": 5468,
        "Long": -73.419314,
        "Lat\r": 44.6481196
    },
    {
        "Site": "Lamoille River",
        "Town": "Milton",
        "Zip": 5468,
        "Long": -73.419314,
        "Lat\r": 44.6481196
    },
    {
        "Site": "Hawk Rock",
        "Town": "Newark",
        "Zip": 5871,
        "Long": -72.077863,
        "Lat\r": 44.6762262
    },
    {
        "Site": "Haystack Mountain",
        "Town": "Pawlet",
        "Zip": 5761,
        "Long": -73.4319823,
        "Lat\r": 43.3517317
    },
    {
        "Site": "Quarry Hill",
        "Town": "Pownal",
        "Zip": 5261,
        "Long": -73.3550883,
        "Lat\r": 42.7903335
    },
    {
        "Site": "Sutherland Quarry/Proctor",
        "Town": "Proctor",
        "Zip": 5765,
        "Long": -73.1046512,
        "Lat\r": 43.6447472
    },
    {
        "Site": "Ryegate Quarry",
        "Town": "Ryegate",
        "Zip": 5042,
        "Long": -72.2371557,
        "Lat\r": 44.2323863
    },
    {
        "Site": "Rattlesnake Point",
        "Town": "Salisbury",
        "Zip": 5769,
        "Long": -73.2383871,
        "Lat\r": 43.9083
    },
    {
        "Site": "Red Rocks Park",
        "Town": "South Burlington",
        "Zip": 5403,
        "Long": -73.2585929,
        "Lat\r": 44.4541796
    },
    {
        "Site": "Skitchewaug Mountain",
        "Town": "Springfield",
        "Zip": 5156,
        "Long": -72.6106701,
        "Lat\r": 43.3106915
    },
    {
        "Site": "Vulture Mountain",
        "Town": "Springfield",
        "Zip": 5156,
        "Long": -72.6106701,
        "Lat\r": 43.3106915
    },
    {
        "Site": "Swanton Quarry",
        "Town": "Swanton",
        "Zip": 5488,
        "Long": -73.2735974,
        "Lat\r": 44.9019563
    },
    {
        "Site": "Nebraska Notch",
        "Town": "Underhill",
        "Zip": 5489,
        "Long": -73.0439069,
        "Lat\r": 44.5520308
    },
    {
        "Site": "Vermont Yankee",
        "Town": "Vernon",
        "Zip": 5354,
        "Long": -72.5841169,
        "Lat\r": 42.7755956
    },
    {
        "Site": "Eagle Ledge",
        "Town": "Vershire",
        "Zip": 5079,
        "Long": -72.4571915,
        "Lat\r": 43.9551244
    },
    {
        "Site": "White Rocks",
        "Town": "Wallingford",
        "Zip": 5773,
        "Long": -73.2674056,
        "Lat\r": 43.3979075
    },
    {
        "Site": "Hawks Mountain",
        "Town": "Weathersfield",
        "Zip": 5151,
        "Long": -72.6145627,
        "Lat\r": 43.392563
    },
    {
        "Site": "Pond MOuntain",
        "Town": "Wells",
        "Zip": 5774,
        "Long": -73.3196886,
        "Lat\r": 43.4246924
    },
    {
        "Site": "Bald Mountain",
        "Town": "West Haven",
        "Zip": 5743,
        "Long": -73.588068,
        "Lat\r": 43.6516667
    },
    {
        "Site": "Jobs Mountain",
        "Town": "Westmore",
        "Zip": 5822,
        "Long": -72.1673035,
        "Lat\r": 44.7602738
    },
    {
        "Site": "Mount Pisgah",
        "Town": "Westmore",
        "Zip": 5822,
        "Long": -72.1673035,
        "Lat\r": 44.7602738
    },
    {
        "Site": "Nichols Ledge",
        "Town": "Woodbury",
        "Zip": 5681,
        "Long": -72.5268874,
        "Lat\r": 44.4530609
    }
]